COSMOS 2242             
1 22626U 93024A   26089.16202458  .00003030  00000+0  26311-3 0  9990
2 22626  82.5163 247.1288 0015178 233.6294 126.3528 14.96637351783457
SL-16 R/B               
1 22803U 93059B   26089.08660096 -.00000180  00000+0 -65123-4 0  9992
2 22803  70.9916 328.1164 0017345 186.8556 173.2333 14.17234703682429
ARIANE 40 R/B           
1 22830U 93061H   26089.15884651  .00000250  00000+0  10717-3 0  9992
2 22830  98.4878 157.6388 0010073 218.2357 141.8114 14.32871839697039
COSMOS 2278             
1 23087U 94023A   26089.10756406 -.00000166  00000+0 -62074-4 0  9999
2 23087  71.0513 132.3826 0009191 341.9822  18.0973 14.14375204647694
SL-16 R/B               
1 23088U 94023B   26089.07417303  .00000335  00000+0  19761-3 0  9996
2 23088  71.0021  28.0758 0005483 266.8676  93.1819 14.15016358648974
SL-16 R/B               
1 23343U 94074B   26089.07557389  .00000608  00000+0  88060-4 0  9997
2 23343  97.7078 119.0652 0007372 144.7908 231.2608 14.79431244690265
SL-16 R/B               
1 23405U 94077B   26089.04781580 -.00000088  00000+0 -20586-4 0  9991
2 23405  70.9832 309.6613 0001874 196.4074 163.6988 14.15569205619111
ARIANE 40+ R/B          
1 23561U 95021B   26089.10113468  .00000355  00000+0  12714-3 0  9993
2 23561  98.4460 160.3036 0007907  83.9539 294.2080 14.39787115622189
SL-16 R/B               
1 23705U 95058B   26089.19712744 -.00000229  00000+0 -93000-4 0  9994
2 23705  71.0200 137.2030 0010144  87.8928 272.3357 14.15498694570751
SL-16 R/B               
1 24298U 96051B   26089.20836561  .00000126  00000+0  94692-4 0  9994
2 24298  70.7584 131.8106 0013415 114.8070 245.4446 14.12421571524540
ORBVIEW 2 (SEASTAR)     
1 24883U 97037A   26089.18899747  .00000361  00000+0  14157-3 0  9999
2 24883  98.8603 254.0478 0002335  26.7023 333.4281 14.35509338511411
SL-16 R/B               
1 25400U 98043G   26089.14909380  .00000090  00000+0  56728-4 0  9994
2 25400  98.8288  42.6619 0009156 320.3809  39.6701 14.26054589441908
